ORBCOMM FM115 [+]       
1 41186U 15081H   23308.76291825  .00001436  00000+0  33135-3 0  9992
2 41186  47.0001 321.9097 0001521 261.8159  98.2555 14.60061613421421
ORBCOMM FM108 [+]       
1 41187U 15081J   23309.17543893  .00002595  00000+0  62116-3 0  9992
2 41187  47.0057   8.3901 0001740 153.8916 206.2057 14.56022738420839
ORBCOMM FM117 [+]       
1 41188U 15081K   23308.86678655  .00002063  00000+0  50186-3 0  9997
2 41188  47.0027   8.8005 0002456 159.1954 200.9031 14.56004443420750
ORBCOMM FM116 [+]       
1 41189U 15081L   23309.13093429  .00001092  00000+0  28337-3 0  9993
2 41189  47.0013  97.3633 0002771 232.7870 127.2762 14.56011029419670
